start=new Date('2022-02-08T00:00:00.000Z').valueOf();
sats=[{"INCLINATION":"53.0591","MEAN_MOTION_DDOT":"0.0000000000000","DECAY_DATE":null,"OBJECT_TYPE":"PAYLOAD","FILE":"3294379","EPOCH":"2022-02-07T08:43:50.700864","MEAN_MOTION_DOT":"-0.00001644","NORAD_CAT_ID":"48147","ELEMENT_SET_NO":"999","GP_ID":"195480549","ECCENTRICITY":"0.00015550","APOAPSIS":"548.352","SITE":"AFETR","TLE_LINE2":"2 48147  53.0591  31.4327 0001555  67.3313 292.7841 15.06379769 47577","OBJECT_NAME":"STARLINK-2490","MEAN_ELEMENT_THEORY":"SGP4","MEAN_MOTION":"15.06379769","PERIOD":"95.593","ARG_OF_PERICENTER":"67.3313","SEMIMAJOR_AXIS":"6925.411","LAUNCH_DATE":"2021-04-07","CLASSIFICATION_TYPE":"U","CENTER_NAME":"EARTH","REV_AT_EPOCH":"4757","TLE_LINE1":"1 48147U 21027BH  22038.36378126 -.00001644  00000-0 -91552-4 0  9990","OBJECT_ID":"2021-027BH","COUNTRY_CODE":"US","BSTAR":"-0.00009155200000","MEAN_ANOMALY":"292.7841","RCS_SIZE":"LARGE","PERIAPSIS":"546.199","EPHEMERIS_TYPE":"0","REF_FRAME":"TEME","TIME_SYSTEM":"UTC","RA_OF_ASC_NODE":"31.4327"},{"REF_FRAME":"TEME","TIME_SYSTEM":"UTC","RCS_SIZE":"LARGE","EPHEMERIS_TYPE":"0","PERIAPSIS":"546.190","RA_OF_ASC_NODE":"25.9958","SEMIMAJOR_AXIS":"6925.356","REV_AT_EPOCH":"4764","LAUNCH_DATE":"2021-04-07","CLASSIFICATION_TYPE":"U","CENTER_NAME":"EARTH","BSTAR":"0.00013408000000","COUNTRY_CODE":"US","OBJECT_ID":"2021-027BJ","TLE_LINE1":"1 48148U 21027BJ  22038.46559484  .00001716  00000-0  13408-3 0  9991","MEAN_ANOMALY":"294.7928","MEAN_ELEMENT_THEORY":"SGP4","TLE_LINE2":"2 48148  53.0564  25.9958 0001490  65.3216 294.7928 15.06397439 47644","SITE":"AFETR","APOAPSIS":"548.253","OBJECT_NAME":"STARLINK-2491","PERIOD":"95.592","MEAN_MOTION":"15.06397439","ARG_OF_PERICENTER":"65.3216","OBJECT_TYPE":"PAYLOAD","INCLINATION":"53.0564","DECAY_DATE":null,"MEAN_MOTION_DDOT":"0.0000000000000","ECCENTRICITY":"0.00014900","ELEMENT_SET_NO":"999","GP_ID":"195480801","MEAN_MOTION_DOT":"0.00001716","FILE":"3294379","EPOCH":"2022-02-07T11:10:27.394176","NORAD_CAT_ID":"48148"},{"DECAY_DATE":null,"MEAN_MOTION_DDOT":"0.0000000000000","INCLINATION":"53.0563","OBJECT_TYPE":"PAYLOAD","NORAD_CAT_ID":"48149","EPOCH":"2022-02-07T06:42:25.047648","FILE":"3294379","MEAN_MOTION_DOT":"-0.00000791","GP_ID":"195481052","ELEMENT_SET_NO":"999","ECCENTRICITY":"0.00015960","OBJECT_NAME":"STARLINK-2492","APOAPSIS":"548.367","TLE_LINE2":"2 48149  53.0563   6.8121 0001596  73.1369 286.9795 15.06384429 47906","SITE":"AFETR","MEAN_ELEMENT_THEORY":"SGP4","ARG_OF_PERICENTER":"73.1369","MEAN_MOTION":"15.06384429","PERIOD":"95.593","LAUNCH_DATE":"2021-04-07","CLASSIFICATION_TYPE":"U","CENTER_NAME":"EARTH","REV_AT_EPOCH":"4790","SEMIMAJOR_AXIS":"6925.396","MEAN_ANOMALY":"286.9795","TLE_LINE1":"1 48149U 21027BK  22038.27945657 -.00000791  00000-0 -34201-4 0  9991","COUNTRY_CODE":"US","OBJECT_ID":"2021-027BK","BSTAR":"-0.00003420100000","PERIAPSIS":"546.156","EPHEMERIS_TYPE":"0","RCS_SIZE":"MEDIUM","TIME_SYSTEM":"UTC","REF_FRAME":"TEME","RA_OF_ASC_NODE":"6.8121"},{"NORAD_CAT_ID":"48150","FILE":"3294537","EPOCH":"2022-02-07T14:45:25.298496","MEAN_MOTION_DOT":"0.00000373","GP_ID":"195487775","ELEMENT_SET_NO":"999","ECCENTRICITY":"0.00014420","DECAY_DATE":null,"MEAN_MOTION_DDOT":"0.0000000000000","INCLINATION":"53.0568","OBJECT_TYPE":"PAYLOAD","ARG_OF_PERICENTER":"90.3135","MEAN_MOTION":"15.06386713","PERIOD":"95.593","OBJECT_NAME":"STARLINK-2493","APOAPSIS":"548.253","SITE":"AFETR","TLE_LINE2":"2 48150  53.0568   5.3232 0001442  90.3135 269.8019 15.06386713 47561","MEAN_ELEMENT_THEORY":"SGP4","MEAN_ANOMALY":"269.8019","TLE_LINE1":"1 48150U 21027BL  22038.61487614  .00000373  00000-0  43925-4 0  9992","COUNTRY_CODE":"US","OBJECT_ID":"2021-027BL","BSTAR":"0.00004392500000","CLASSIFICATION_TYPE":"U","LAUNCH_DATE":"2021-04-07","CENTER_NAME":"EARTH","REV_AT_EPOCH":"4756","SEMIMAJOR_AXIS":"6925.389","RA_OF_ASC_NODE":"5.3232","PERIAPSIS":"546.256","EPHEMERIS_TYPE":"0","RCS_SIZE":"LARGE","TIME_SYSTEM":"UTC","REF_FRAME":"TEME"},{"RA_OF_ASC_NODE":"6.1969","REF_FRAME":"TEME","TIME_SYSTEM":"UTC","RCS_SIZE":"LARGE","EPHEMERIS_TYPE":"0","PERIAPSIS":"546.214","COUNTRY_CODE":"US","BSTAR":"-0.00017017000000","OBJECT_ID":"2021-027BM","TLE_LINE1":"1 48151U 21027BM  22038.41953496 -.00002814  00000-0 -17017-3 0  9993","MEAN_ANOMALY":"293.5937","SEMIMAJOR_AXIS":"6925.407","REV_AT_EPOCH":"4793","CENTER_NAME":"EARTH","LAUNCH_DATE":"2021-04-07","CLASSIFICATION_TYPE":"U","PERIOD":"95.593","MEAN_MOTION":"15.06381047","ARG_OF_PERICENTER":"66.5212","MEAN_ELEMENT_THEORY":"SGP4","TLE_LINE2":"2 48151  53.0573   6.1969 0001527  66.5212 293.5937 15.06381047 47938","SITE":"AFETR","APOAPSIS":"548.329","OBJECT_NAME":"STARLINK-2503","ECCENTRICITY":"0.00015270","ELEMENT_SET_NO":"999","GP_ID":"195480050","MEAN_MOTION_DOT":"-0.00002814","EPOCH":"2022-02-07T10:04:07.820544","FILE":"3294379","NORAD_CAT_ID":"48151","OBJECT_TYPE":"PAYLOAD","INCLINATION":"53.0573","MEAN_MOTION_DDOT":"0.0000000000000","DECAY_DATE":null},{"REF_FRAME":"TEME","TIME_SYSTEM":"UTC","RCS_SIZE":"LARGE","EPHEMERIS_TYPE":"0","PERIAPSIS":"546.291","RA_OF_ASC_NODE":"260.4509","SEMIMAJOR_AXIS":"6925.479","REV_AT_EPOCH":"4464","LAUNCH_DATE":"2021-04-29","CENTER_NAME":"EARTH","CLASSIFICATION_TYPE":"U","COUNTRY_CODE":"US","BSTAR":"0.00207730000000","OBJECT_ID":"2021-036A","TLE_LINE1":"1 48276U 21036A   22038.58334491  .00030760  00000-0  20773-2 0  9998","MEAN_ANOMALY":"229.3165","MEAN_ELEMENT_THEORY":"SGP4","SITE":"AFETR","TLE_LINE2":"2 48276  53.0540 260.4509 0001521  77.1227 229.3165 15.06357365 44644","APOAPSIS":"548.398","OBJECT_NAME":"STARLINK-2567","PERIOD":"95.595","MEAN_MOTION":"15.06357365","ARG_OF_PERICENTER":"77.1227","OBJECT_TYPE":"PAYLOAD","INCLINATION":"53.0540","DECAY_DATE":null,"MEAN_MOTION_DDOT":"0.0000000000000","ECCENTRICITY":"0.00015210","ELEMENT_SET_NO":"999","GP_ID":"195453727","MEAN_MOTION_DOT":"0.00030760","EPOCH":"2022-02-07T14:00:01.000224","FILE":"3294130","NORAD_CAT_ID":"48276"},{"RCS_SIZE":"LARGE","EPHEMERIS_TYPE":"0","PERIAPSIS":"545.586","REF_FRAME":"TEME","TIME_SYSTEM":"UTC","RA_OF_ASC_NODE":"223.9403","SEMIMAJOR_AXIS":"6925.366","REV_AT_EPOCH":"4518","LAUNCH_DATE":"2021-04-29","CLASSIFICATION_TYPE":"U","CENTER_NAME":"EARTH","COUNTRY_CODE":"US","BSTAR":"0.00096340000000","OBJECT_ID":"2021-036B","TLE_LINE1":"1 48277U 21036B   22038.91667824  .00014095  00000-0  96340-3 0  9992","MEAN_ANOMALY":"233.7238","SITE":"AFETR","TLE_LINE2":"2 48277  53.0539 223.9403 0002376  73.9965 233.7238 15.06394171 45188","APOAPSIS":"548.877","OBJECT_NAME":"STARLINK-2569","MEAN_ELEMENT_THEORY":"SGP4","PERIOD":"95.593","MEAN_MOTION":"15.06394171","ARG_OF_PERICENTER":"73.9965","INCLINATION":"53.0539","MEAN_MOTION_DDOT":"0.0000000000000","DECAY_DATE":null,"OBJECT_TYPE":"PAYLOAD","MEAN_MOTION_DOT":"0.00014095","EPOCH":"2022-02-07T22:00:00.999936","FILE":"3294449","NORAD_CAT_ID":"48277","ECCENTRICITY":"0.00023760","GP_ID":"195485213","ELEMENT_SET_NO":"999"},{"RA_OF_ASC_NODE":"240.5739","PERIAPSIS":"546.123","EPHEMERIS_TYPE":"0","RCS_SIZE":"LARGE","TIME_SYSTEM":"UTC","REF_FRAME":"TEME","MEAN_ANOMALY":"38.4307","TLE_LINE1":"1 48278U 21036C   22038.58334491  .00008753  00000-0  60589-3 0  9997","COUNTRY_CODE":"US","BSTAR":"0.00060589000000","OBJECT_ID":"2021-036C","CLASSIFICATION_TYPE":"U","LAUNCH_DATE":"2021-04-29","CENTER_NAME":"EARTH","REV_AT_EPOCH":"359","SEMIMAJOR_AXIS":"6925.364","ARG_OF_PERICENTER":"58.0794","MEAN_MOTION":"15.06395091","PERIOD":"95.592","OBJECT_NAME":"STARLINK-2543","APOAPSIS":"548.334","TLE_LINE2":"2 48278  53.0541 240.5739 0001596  58.0794  38.4307 15.06395091  3594","SITE":"AFETR","MEAN_ELEMENT_THEORY":"SGP4","NORAD_CAT_ID":"48278","EPOCH":"2022-02-07T14:00:01.000224","FILE":"3294379","MEAN_MOTION_DOT":"0.00008753","ELEMENT_SET_NO":"999","GP_ID":"195481566","ECCENTRICITY":"0.00015960","MEAN_MOTION_DDOT":"0.0000000000000","DECAY_DATE":null,"INCLINATION":"53.0541","OBJECT_TYPE":"PAYLOAD"},{"REF_FRAME":"TEME","TIME_SYSTEM":"UTC","RCS_SIZE":"LARGE","EPHEMERIS_TYPE":"0","PERIAPSIS":"545.973","RA_OF_ASC_NODE":"238.9606","SEMIMAJOR_AXIS":"6925.442","REV_AT_EPOCH":"4496","CLASSIFICATION_TYPE":"U","LAUNCH_DATE":"2021-04-29","CENTER_NAME":"EARTH","COUNTRY_CODE":"US","OBJECT_ID":"2021-036D","BSTAR":"0.00141990000000","TLE_LINE1":"1 48279U 21036D   22038.91667824  .00020914  00000-0  14199-2 0  9992","MEAN_ANOMALY":"83.2556","MEAN_ELEMENT_THEORY":"SGP4","SITE":"AFETR","TLE_LINE2":"2 48279  53.0549 238.9606 0001925  61.8780  83.2556 15.06369633 44963","APOAPSIS":"548.640","OBJECT_NAME":"STARLINK-2580","PERIOD":"95.594","MEAN_MOTION":"15.06369633","ARG_OF_PERICENTER":"61.8780","OBJECT_TYPE":"PAYLOAD","INCLINATION":"53.0549","MEAN_MOTION_DDOT":"0.0000000000000","DECAY_DATE":null,"ECCENTRICITY":"0.00019250","ELEMENT_SET_NO":"999","GP_ID":"195484311","MEAN_MOTION_DOT":"0.00020914","EPOCH":"2022-02-07T22:00:00.999936","FILE":"3294386","NORAD_CAT_ID":"48279"},{"REV_AT_EPOCH":"4335","CLASSIFICATION_TYPE":"U","LAUNCH_DATE":"2021-04-29","CENTER_NAME":"EARTH","SEMIMAJOR_AXIS":"6925.431","MEAN_ANOMALY":"301.3591","BSTAR":"-0.00008985000000","COUNTRY_CODE":"US","OBJECT_ID":"2021-036E","TLE_LINE1":"1 48280U 21036E   22038.55176916 -.00001619  00000-0 -89850-4 0  9992","TIME_SYSTEM":"UTC","REF_FRAME":"TEME","EPHEMERIS_TYPE":"0","PERIAPSIS":"546.113","RCS_SIZE":"LARGE","RA_OF_ASC_NODE":"310.5890","OBJECT_TYPE":"PAYLOAD","DECAY_DATE":null,"MEAN_MOTION_DDOT":"0.0000000000000","INCLINATION":"53.0564","ECCENTRICITY":"0.00017080","ELEMENT_SET_NO":"999","GP_ID":"195480564","NORAD_CAT_ID":"48280","MEAN_MOTION_DOT":"-0.00001619","FILE":"3294379","EPOCH":"2022-02-07T13:14:32.855424","MEAN_ELEMENT_THEORY":"SGP4","OBJECT_NAME":"STARLINK-2565","TLE_LINE2":"2 48280  53.0564 310.5890 0001708  58.7565 301.3591 15.06373187 43353","SITE":"AFETR","APOAPSIS":"548.479","ARG_OF_PERICENTER":"58.7565","PERIOD":"95.594","MEAN_MOTION":"15.06373187"}];
